NORAD_CAT_ID,OBJECT_NAME,OBJECT_TYPE,EPOCH,MEAN_MOTION,ECCENTRICITY,INCLINATION,RA_OF_ASC_NODE,ARG_OF_PERICENTER,MEAN_ANOMALY,BSTAR,MEAN_MOTION_DOT,MEAN_MOTION_DDOT,TLE_LINE0,TLE_LINE1,TLE_LINE2,SEMIMAJOR_AXIS,PERIOD,APOGEE,PERIGEE,DECAYED
53022.0,STARLINK-4216,PAYLOAD,2024-06-19 20:32:27,15.08843513,0.0001587,53.2181,22.5746,101.8989,258.2181,0.0003959,6.019e-05,0.0,0 STARLINK-4216,1 53022U 22076AN  24171.85587385  .00006019  00000-0  39590-3 0  9998,2 53022  53.2181  22.5746 0001587 101.8989 258.2181 15.08843513108203,6917.87,95.437,540.833,538.637,0.0
53022.0,STARLINK-4216,PAYLOAD,2024-06-20 20:23:14,15.08845566,0.0001407,53.2171,18.1188,96.347,263.7682,0.0002101,3.058e-05,0.0,0 STARLINK-4216,1 53022U 22076AN  24172.84947292  .00003058  00000-0  21010-3 0  9993,2 53022  53.2171  18.1188 0001407  96.3470 263.7682 15.08845566108350,6917.863,95.437,540.702,538.755,0.0
53022.0,STARLINK-4216,PAYLOAD,2024-06-20 23:34:00,15.08847189,0.0001383,53.2169,17.5222,99.4508,260.664,0.00022753,3.336e-05,0.0,0 STARLINK-4216,1 53022U 22076AN  24172.98195160  .00003336  00000-0  22753-3 0  9991,2 53022  53.2169  17.5222 0001383  99.4508 260.6640 15.08847189108845,6917.858,95.437,540.68,538.767,0.0
53022.0,STARLINK-4216,PAYLOAD,2024-06-21 20:14:01,15.08840928,0.0001338,53.2171,13.6548,84.8766,275.2379,1.7574e-05,-8e-08,0.0,0 STARLINK-4216,1 53022U 22076AN  24173.84307442 -.00000008  00000-0  17574-4 0  9995,2 53022  53.2171  13.6548 0001338  84.8766 275.2379 15.08840928108979,6917.878,95.437,540.668,538.817,0.0
53022.0,STARLINK-4216,PAYLOAD,2024-06-22 13:43:16,15.08840518,0.000133,53.2178,10.3827,85.278,274.8364,8.7355e-05,1.103e-05,0.0,0 STARLINK-4216,1 53022U 22076AN  24174.57171404  .00001103  00000-0  87355-4 0  9993,2 53022  53.2178  10.3827 0001330  85.2780 274.8364 15.08840518108618,6917.879,95.438,540.664,538.824,0.0
53022.0,STARLINK-4216,PAYLOAD,2024-06-22 18:29:25,15.08839756,0.0001284,53.2186,9.4906,85.7797,274.3342,8.2341e-05,1.023e-05,0.0,0 STARLINK-4216,1 53022U 22076AN  24174.77043550  .00001023  00000-0  82341-4 0  9996,2 53022  53.2186   9.4906 0001284  85.7797 274.3342 15.08839756108641,6917.881,95.438,540.634,538.858,0.0
53022.0,STARLINK-4216,PAYLOAD,2024-06-23 13:34:03,15.08838698,0.0001293,53.2186,5.9221,103.8233,256.2903,0.00010143,1.327e-05,0.0,0 STARLINK-4216,1 53022U 22076AN  24175.56531518  .00001327  00000-0  10143-3 0  9997,2 53022  53.2186   5.9221 0001293 103.8233 256.2903 15.08838698109231,6917.884,95.438,540.644,538.855,0.0
53022.0,STARLINK-4216,PAYLOAD,2024-06-23 18:20:12,15.08837167,0.0001229,53.2184,5.0301,99.4487,260.6644,7.6512e-05,9.3e-06,0.0,0 STARLINK-4216,1 53022U 22076AN  24175.76403719  .00000930  00000-0  76512-4 0  9992,2 53022  53.2184   5.0301 0001229  99.4487 260.6644 15.08837167108790,6917.889,95.438,540.604,538.904,0.0
53022.0,STARLINK-4216,PAYLOAD,2024-06-24 11:49:27,15.08840275,0.000114,53.2179,1.7582,95.7027,264.4095,7.7997e-05,9.54e-06,0.0,0 STARLINK-4216,1 53022U 22076AN  24176.49267602  .00000954  00000-0  77997-4 0  9996,2 53022  53.2179   1.7582 0001140  95.7027 264.4095 15.08840275108908,6917.88,95.438,540.533,538.956,0.0
53022.0,STARLINK-4216,PAYLOAD,2024-06-24 19:46:22,15.0884067,0.0001144,53.2179,0.2713,94.9233,265.1889,7.3937e-05,8.89e-06,0.0,0 STARLINK-4216,1 53022U 22076AN  24176.82387578  .00000889  00000-0  73937-4 0  9995,2 53022  53.2179   0.2713 0001144  94.9233 265.1889 15.08840670109428,6917.878,95.438,540.535,538.952,0.0
53022.0,STARLINK-4216,PAYLOAD,2024-06-25 19:37:09,15.08844811,0.0001133,53.218,355.8111,92.9722,267.14,0.00012345,1.678e-05,0.0,0 STARLINK-4216,1 53022U 22076AN  24177.81747181  .00001678  00000-0  12345-3 0  9997,2 53022  53.2180 355.8111 0001133  92.9722 267.1400 15.08844811109107,6917.866,95.437,540.514,538.947,0.0
53022.0,STARLINK-4216,PAYLOAD,2024-06-27 05:00:15,15.08843692,0.0001179,53.2181,349.5681,88.5902,271.5225,7.9399e-05,9.76e-06,0.0,0 STARLINK-4216,1 53022U 22076AN  24179.20851340  .00000976  00000-0  79399-4 0  9998,2 53022  53.2181 349.5681 0001179  88.5902 271.5225 15.08843692109785,6917.869,95.437,540.55,538.918,0.0
53022.0,STARLINK-4216,PAYLOAD,2024-06-27 17:43:21,15.08835463,0.0001319,53.2182,347.187,100.8543,259.2598,-7.6466e-05,-1.504e-05,0.0,0 STARLINK-4216,1 53022U 22076AN  24179.73844258 -.00001504  00000-0 -76466-4 0  9998,2 53022  53.2182 347.1870 0001319 100.8543 259.2598 15.08835463109867,6917.894,95.438,540.672,538.847,0.0
53022.0,STARLINK-4216,PAYLOAD,2024-06-28 04:51:02,15.0884378,0.000123,53.2187,345.108,89.1622,270.9511,8.6623e-05,1.091e-05,0.0,0 STARLINK-4216,1 53022U 22076AN  24180.20211550  .00001091  00000-0  86623-4 0  9990,2 53022  53.2187 345.1080 0001230  89.1622 270.9511 15.08843780109936,6917.869,95.437,540.585,538.883,0.0
53022.0,STARLINK-4216,PAYLOAD,2024-06-28 17:34:08,15.08837594,0.0001535,53.2171,342.7262,114.2803,245.835,0.00028115,4.189e-05,0.0,0 STARLINK-4216,1 53022U 22076AN  24180.73203958  .00004189  00000-0  28115-3 0  9993,2 53022  53.2171 342.7262 0001535 114.2803 245.8350 15.08837594110012,6917.888,95.438,540.815,538.691,0.0
53022.0,STARLINK-4216,PAYLOAD,2024-06-29 14:14:09,15.08840466,0.0001436,53.2169,338.8575,102.0577,258.0576,0.0001797,2.573e-05,0.0,0 STARLINK-4216,1 53022U 22076AN  24181.59316044  .00002573  00000-0  17970-3 0  9991,2 53022  53.2169 338.8575 0001436 102.0577 258.0576 15.08840466109673,6917.879,95.438,540.737,538.751,0.0
53022.0,STARLINK-4216,PAYLOAD,2024-06-29 17:24:55,15.08835402,0.0001224,53.217,338.2653,78.4909,281.6221,0.00015584,2.193e-05,0.0,0 STARLINK-4216,1 53022U 22076AN  24181.72564156  .00002193  00000-0  15584-3 0  9992,2 53022  53.2170 338.2653 0001224  78.4909 281.6221 15.08835402110165,6917.894,95.438,540.606,538.913,0.0
53022.0,STARLINK-4216,PAYLOAD,2024-06-29 20:35:41,15.08839178,0.00012,53.2173,337.6712,70.6892,289.423,0.0001112,1.482e-05,0.0,0 STARLINK-4216,1 53022U 22076AN  24181.85811971  .00001482  00000-0  11120-3 0  9998,2 53022  53.2173 337.6712 0001200  70.6892 289.4230 15.08839178109715,6917.883,95.438,540.578,538.918,0.0
53022.0,STARLINK-4216,PAYLOAD,2024-06-30 02:57:13,15.08854222,0.0001274,53.2187,336.4858,79.332,280.7815,0.00016798,2.388e-05,0.0,0 STARLINK-4216,1 53022U 22076AN  24182.12306776  .00002388  00000-0  16798-3 0  9993,2 53022  53.2187 336.4858 0001274  79.3320 280.7815 15.08854222110229,6917.837,95.437,540.583,538.821,0.0
53022.0,STARLINK-4216,PAYLOAD,2024-06-30 10:54:11,15.08820126,9.91e-05,53.2175,334.9953,98.248,261.8625,-0.0001068,-1.986e-05,0.0,0 STARLINK-4216,1 53022U 22076AN  24182.45429607 -.00001986  00000-0 -10680-3 0  9997,2 53022  53.2175 334.9953 0000991  98.2480 261.8625 15.08820126110277,6917.941,95.439,540.492,539.121,0.0
53022.0,STARLINK-4216,PAYLOAD,2024-06-30 14:04:56,15.08836211,0.0001518,53.2173,334.3995,110.085,250.0306,-3.9662e-05,-9.19e-06,0.0,0 STARLINK-4216,1 53022U 22076AN  24182.58675995 -.00000919  00000-0 -39662-4 0  9991,2 53022  53.2173 334.3995 0001518 110.0850 250.0306 15.08836211109822,6917.892,95.438,540.807,538.707,0.0
53022.0,STARLINK-4216,PAYLOAD,2024-06-30 17:15:42,15.08833808,0.0001177,53.2168,333.8097,79.7656,280.3469,5.9672e-05,6.62e-06,0.0,0 STARLINK-4216,1 53022U 22076AN  24182.71924645  .00000662  00000-0  59672-4 0  9991,2 53022  53.2168 333.8097 0001177  79.7656 280.3469 15.08833808110310,6917.899,95.438,540.579,538.95,0.0
53022.0,STARLINK-4216,PAYLOAD,2024-07-01 02:48:00,15.0885381,0.0001337,53.2186,332.0242,87.7135,272.401,7.7255e-05,9.42e-06,0.0,0 STARLINK-4216,1 53022U 22076AN  24183.11667109  .00000942  00000-0  77255-4 0  9993,2 53022  53.2186 332.0242 0001337  87.7135 272.4010 15.08853810110377,6917.838,95.437,540.628,538.778,0.0
53022.0,STARLINK-4216,PAYLOAD,2024-07-01 10:44:57,15.0882344,0.0001293,53.218,330.5386,86.3809,273.7331,-0.00014097,-2.53e-05,0.0,0 STARLINK-4216,1 53022U 22076AN  24183.44788736 -.00002530  00000-0 -14097-3 0  9990,2 53022  53.2180 330.5386 0001293  86.3809 273.7331 15.08823440110429,6917.931,95.439,540.69,538.902,0.0
53022.0,STARLINK-4216,PAYLOAD,2024-07-01 13:55:43,15.08827052,0.0001365,53.2173,329.944,92.3381,267.7767,-8.4116e-05,-1.626e-05,0.0,0 STARLINK-4216,1 53022U 22076AN  24183.58036678 -.00001626  00000-0 -84116-4 0  9991,2 53022  53.2173 329.9440 0001365  92.3381 267.7767 15.08827052109973,6917.92,95.438,540.729,538.841,0.0
53022.0,STARLINK-4216,PAYLOAD,2024-07-01 17:06:29,15.08828901,0.0001316,53.2174,329.352,101.2501,258.864,-3.9034e-05,-9.09e-06,0.0,0 STARLINK-4216,1 53022U 22076AN  24183.71284657 -.00000909  00000-0 -39034-4 0  9990,2 53022  53.2174 329.3520 0001316 101.2501 258.8640 15.08828901109994,6917.914,95.438,540.69,538.869,0.0
53022.0,STARLINK-4216,PAYLOAD,2024-07-02 02:38:48,15.08841775,0.000126,53.2175,327.5648,83.9622,276.1514,4.4927e-05,4.27e-06,0.0,0 STARLINK-4216,1 53022U 22076AN  24184.11028130  .00000427  00000-0  44927-4 0  9997,2 53022  53.2175 327.5648 0001260  83.9622 276.1514 15.08841775110522,6917.875,95.437,540.612,538.868,0.0
53022.0,STARLINK-4216,PAYLOAD,2024-07-02 13:46:31,15.08826732,0.0001612,53.217,325.483,91.7748,268.3429,4.8585e-05,4.85e-06,0.0,0 STARLINK-4216,1 53022U 22076AN  24184.57397309  .00000485  00000-0  48585-4 0  9992,2 53022  53.2170 325.4830 0001612  91.7748 268.3429 15.08826732110124,6917.921,95.438,540.901,538.671,0.0
53022.0,STARLINK-4216,PAYLOAD,2024-07-02 18:32:40,15.08839035,9.29e-05,53.2154,324.59,120.9842,239.1241,0.00014806,2.069e-05,0.0,0 STARLINK-4216,1 53022U 22076AN  24184.77268558  .00002069  00000-0  14806-3 0  9995,2 53022  53.2154 324.5900 0000929 120.9842 239.1241 15.08839035110627,6917.883,95.438,540.391,539.106,0.0
53022.0,STARLINK-4216,PAYLOAD,2024-07-03 02:29:35,15.08850165,0.0001025,53.2164,323.1015,78.4134,281.6974,0.00019213,2.772e-05,0.0,0 STARLINK-4216,1 53022U 22076AN  24185.10388053  .00002772  00000-0  19213-3 0  9994,2 53022  53.2164 323.1015 0001025  78.4134 281.6974 15.08850165110676,6917.849,95.437,540.423,539.005,0.0
